{
  "62514": {
    "noradId": "62514",
    "tle": [
      "1 62514C 25004D   25326.15256944 -.00006774  00000+0 -52608-4 0  3267",
      "2 62514  43.0001 358.8452 0001521 266.8861 202.9217 15.70847133    12"
    ]
  },
  "62515": {
    "noradId": "62515",
    "tle": [
      "1 62515C 25004E   25326.15395833 -.00015458  00000+0 -12008-3 0  3267",
      "2 62515  43.0002 358.7488 0001380 268.3839 244.5144 15.70850825    10"
    ]
  },
  "62516": {
    "noradId": "62516",
    "tle": [
      "1 62516C 25004F   25326.15673611 -.00009909  00000+0 -76974-4 0  3268",
      "2 62516  43.0002 359.1801 0001575 261.5886  86.6751 15.70845998    12"
    ]
  },
  "62517": {
    "noradId": "62517",
    "tle": [
      "1 62517C 25004G   25326.15256944 -.00002723  00000+0 -21153-4 0  3261",
      "2 62517  43.0002 358.5319 0001556 273.2957 321.9387 15.70835355    14"
    ]
  },
  "62518": {
    "noradId": "62518",
    "tle": [
      "1 62518C 25004H   25326.15118056 -.00010211  00000+0 -79312-4 0  3264",
      "2 62518  43.0000 358.9884 0001377 277.1729 129.8142 15.70848120    13"
    ]
  },
  "62519": {
    "noradId": "62519",
    "tle": [
      "1 62519C 25004J   25326.15326389 -.00081965  00000+0 -63610-3 0  3262",
      "2 62519  43.0000 359.0501 0001421 282.8267 105.8851 15.70939328    14"
    ]
  },
  "62520": {
    "noradId": "62520",
    "tle": [
      "1 62520C 25004K   25326.15743056 -.00010109  00000+0 -78516-4 0  3262",
      "2 62520  43.0002 358.5758 0001619 262.8565 329.8134 15.70849822    15"
    ]
  },
  "62521": {
    "noradId": "62521",
    "tle": [
      "1 62521C 25004L   25326.15187500 -.00006255  00000+0 -48587-4 0  3261",
      "2 62521  43.0001 359.2780 0001538 287.8554   2.8342 15.70840554    15"
    ]
  },
  "62522": {
    "noradId": "62522",
    "tle": [
      "1 62522C 25004M   25326.15326389 -.00005378  00000+0 -41775-4 0  3269",
      "2 62522  42.9999 358.8239 0001510 266.6987 212.2224 15.70839700    16"
    ]
  },
  "62523": {
    "noradId": "62523",
    "tle": [
      "1 62523C 25004N   25326.15673611 -.00006264  00000+0 -48670-4 0  3269",
      "2 62523  43.0002 358.6532 0001488 271.3295 287.3758 15.70837568    12"
    ]
  },
  "62524": {
    "noradId": "62524",
    "tle": [
      "1 62524C 25004P   25326.13034722  .00009462  00000+0  34290-3 0  3265",
      "2 62524  42.9998 107.1337 0001610 277.0011 343.6764 15.27549543    19"
    ]
  },
  "62525": {
    "noradId": "62525",
    "tle": [
      "1 62525C 25004Q   25326.13104167  .00000891  00000+0  32277-4 0  3268",
      "2 62525  43.0030 107.6537 0001412 266.5816 138.6031 15.27563207    14"
    ]
  },
  "62526": {
    "noradId": "62526",
    "tle": [
      "1 62526C 25004R   25326.12826389 -.00000969  00000+0 -35101-4 0  3262",
      "2 62526  43.0030 104.0596 0001478 265.4810 185.4095 15.27567815    14"
    ]
  },
  "62527": {
    "noradId": "62527",
    "tle": [
      "1 62527C 25004S   25326.13173611 -.00003316  00000+0 -12010-3 0  3269",
      "2 62527  42.9996 107.3282 0001518 267.0139 276.3933 15.27580413    19"
    ]
  },
  "62528": {
    "noradId": "62528",
    "tle": [
      "1 62528C 25004T   25326.12756944  .00003952  00000+0  14317-3 0  3261",
      "2 62528  43.0022 106.9083 0001715 266.3273  78.0952 15.27566981    18"
    ]
  },
  "62529": {
    "noradId": "62529",
    "tle": [
      "1 62529C 25004U   25326.12756944  .00000230  00000+0  83223-5 0  3262",
      "2 62529  43.0002 107.4337 0001507 264.7661 220.3336 15.27573794    15"
    ]
  },
  "62530": {
    "noradId": "62530",
    "tle": [
      "1 62530C 25004V   25326.13243056 -.00000711  00000+0 -25763-4 0  3260",
      "2 62530  42.9994 107.2179 0001515 264.9896 324.7040 15.27572198    16"
    ]
  },
  "62531": {
    "noradId": "62531",
    "tle": [
      "1 62531C 25004W   25326.12548611  .00002857  00000+0  10351-3 0  3262",
      "2 62531  43.0019 107.5559 0001450 263.4108 167.7753 15.27567630    11"
    ]
  },
  "62554": {
    "noradId": "62554",
    "tle": [
      "1 62554C 25006A   25326.15187500  .00000730  00000+0  56702-5 0  3268",
      "2 62554  43.0006  67.7443 0001807 270.5990  84.1746 15.70834687    16"
    ]
  },
  "62555": {
    "noradId": "62555",
    "tle": [
      "1 62555C 25006B   25326.15604167 -.00009578  00000+0 -74422-4 0  3261",
      "2 62555  43.0006  67.7935 0001712 255.5572  92.7536 15.70839095    17"
    ]
  },
  "62556": {
    "noradId": "62556",
    "tle": [
      "1 62556C 25006C   25326.15812500 -.00007773  00000+0 -60393-4 0  3261",
      "2 62556  43.0004  68.3786 0001430 275.9080 203.7164 15.70838369    18"
    ]
  },
  "62557": {
    "noradId": "62557",
    "tle": [
      "1 62557C 25006D   25326.15604167 -.00008834  00000+0 -68636-4 0  3267",
      "2 62557  43.0003  68.0919 0001592 274.6873 313.3825 15.70839308    14"
    ]
  },
  "62558": {
    "noradId": "62558",
    "tle": [
      "1 62558C 25006E   25326.15534722 -.00017560  00000+0 -13642-3 0  3269",
      "2 62558  43.0005  68.0208 0001739 284.5419 329.6550 15.70848862    17"
    ]
  },
  "62559": {
    "noradId": "62559",
    "tle": [
      "1 62559C 25006F   25326.15673611 -.00005811  00000+0 -45138-4 0  3263",
      "2 62559  43.0003  68.1608 0001519 282.3251 279.6025 15.70841553    18"
    ]
  },
  "62560": {
    "noradId": "62560",
    "tle": [
      "1 62560C 25006G   25326.15465278  .00002872  00000+0  22316-4 0  3268",
      "2 62560  43.0006  68.4858 0001719 255.4297 169.3219 15.70825785    15"
    ]
  },
  "62561": {
    "noradId": "62561",
    "tle": [
      "1 62561C 25006H   25326.15395833 -.00013629  00000+0 -10588-3 0  3269",
      "2 62561  43.0004  67.8780 0001533 273.9211  32.5343 15.70845707    11"
    ]
  },
  "62562": {
    "noradId": "62562",
    "tle": [
      "1 62562C 25006J   25326.15812500 -.00009115  00000+0 -70800-4 0  3264",
      "2 62562  43.0008  68.4506 0001543 281.4954 168.0494 15.70846261    16"
    ]
  },
  "62563": {
    "noradId": "62563",
    "tle": [
      "1 62563C 25006K   25326.15326389 -.00024821  00000+0 -19284-3 0  3269",
      "2 62563  43.0005  67.9561 0001642 277.9587 354.4980 15.70856020    16"
    ]
  },
  "62564": {
    "noradId": "62564",
    "tle": [
      "1 62564C 25006L   25326.15673611  .00004308  00000+0  33467-4 0  3269",
      "2 62564  43.0005  68.2335 0001574 279.6355 252.2441 15.70829714    13"
    ]
  },
  "62565": {
    "noradId": "62565",
    "tle": [
      "1 62565C 25006M   25326.15256944 -.00010176  00000+0 -79059-4 0  3265",
      "2 62565  43.0006  68.3329 0001629 266.6584 211.5735 15.70840810    14"
    ]
  },
  "62566": {
    "noradId": "62566",
    "tle": [
      "1 62566C 25006N   25326.15743056 -.00003377  00000+0 -26219-4 0  3266",
      "2 62566  43.0005  68.5277 0001763 289.0879 126.4502 15.70846574    12"
    ]
  },
  "62567": {
    "noradId": "62567",
    "tle": [
      "1 62567C 25006P   25326.12756944  .00013089  00000+0  47419-3 0  3267",
      "2 62567  42.9990 180.1159 0001531 264.1057  16.8529 15.27557453    17"
    ]
  },
  "62568": {
    "noradId": "62568",
    "tle": [
      "1 62568C 25006Q   25326.12687500  .00012371  00000+0  44821-3 0  3266",
      "2 62568  42.9987 180.1724 0001485 259.7575 349.0963 15.27556404    13"
    ]
  },
  "62569": {
    "noradId": "62569",
    "tle": [
      "1 62569C 25006R   25326.12548611  .00013930  00000+0  50468-3 0  3262",
      "2 62569  42.9993 180.3114 0001297 259.3450 292.3227 15.27556761    14"
    ]
  },
  "62570": {
    "noradId": "62570",
    "tle": [
      "1 62570C 25006S   25326.13034722  .00014023  00000+0  50812-3 0  3265",
      "2 62570  42.9989 180.3826 0001410 258.1204 277.8950 15.27550402    19"
    ]
  },
  "62571": {
    "noradId": "62571",
    "tle": [
      "1 62571C 25006T   25326.12826389  .00014402  00000+0  52173-3 0  3266",
      "2 62571  43.0013 179.8794 0001568 267.3526 116.4754 15.27557710    19"
    ]
  },
  "62572": {
    "noradId": "62572",
    "tle": [
      "1 62572C 25006U   25326.12548611  .00013862  00000+0  50277-3 0  3268",
      "2 62572  42.9991 179.6461 0001612 253.5907 213.9927 15.27519532    17"
    ]
  },
  "62573": {
    "noradId": "62573",
    "tle": [
      "1 62573C 25006V   25326.12756944  .00014286  00000+0  51758-3 0  3265",
      "2 62573  43.0012 179.7763 0001636 261.5210 160.9420 15.27555619    17"
    ]
  },
  "62574": {
    "noradId": "62574",
    "tle": [
      "1 62574C 25006W   25326.13173611  .00014050  00000+0  50897-3 0  3263",
      "2 62574  43.0011 179.9870 0001894 265.6417  80.7097 15.27558761    18"
    ]
  },
  "62587": {
    "noradId": "62587",
    "tle": [
      "1 62587C 25008A   25326.15465278 -.00009377  00000+0 -72840-4 0  3265",
      "2 62587  43.0006  54.5670 0001671 277.2742 289.9705 15.70845118    17"
    ]
  },
  "62588": {
    "noradId": "62588",
    "tle": [
      "1 62588C 25008B   25326.15743056 -.00001650  00000+0 -12820-4 0  3267",
      "2 62588  43.0004  54.1012 0001643 263.0102 140.3477 15.70831532    15"
    ]
  },
  "62589": {
    "noradId": "62589",
    "tle": [
      "1 62589C 25008C   25326.15673611  .00003174  00000+0  24657-4 0  3269",
      "2 62589  43.0007  54.4041 0001777 258.8514  20.3333 15.70828373    18"
    ]
  },
  "62590": {
    "noradId": "62590",
    "tle": [
      "1 62590C 25008D   25326.15187500 -.00007882  00000+0 -61243-4 0  3262",
      "2 62590  43.0005  53.9096 0001351 282.0315 180.0477 15.70838663    14"
    ]
  },
  "62591": {
    "noradId": "62591",
    "tle": [
      "1 62591C 25008E   25326.15534722  .00001536  00000+0  11931-4 0  3262",
      "2 62591  43.0005  54.4864 0001014 258.1561 343.1013 15.70830035    10"
    ]
  },
  "62592": {
    "noradId": "62592",
    "tle": [
      "1 62592C 25008F   25326.15395833 -.00006012  00000+0 -46712-4 0  3262",
      "2 62592  43.0007  54.7185 0001704 250.3823 252.8278 15.70836810    19"
    ]
  }
}